{
"type": "FeatureCollection",
"name": "1lots",
"crs": { "type": "name", "properties": { "name": "urn:ogc:def:crs:OGC:1.3:CRS84" } },
"features": [
{ "type": "Feature", "properties": { "fid": 1, "lot_no": "59", "name": null, "status": null }, "geometry": { "type": "Polygon", "coordinates": [ [ [ -91.294377906555368, 36.989394872713568 ], [ -91.294446360642553, 36.98939608613879 ], [ -91.294444847961486, 36.989450998562859 ], [ -91.294376393825132, 36.989449785135903 ], [ -91.294377906555368, 36.989394872713568 ] ] ] } },
{ "type": "Feature", "properties": { "fid": 2, "lot_no": "60A", "name": null, "status": null }, "geometry": { "type": "Polygon", "coordinates": [ [ [ -91.294443683809845, 36.989483937607012 ], [ -91.29437522964399, 36.989482724178856 ], [ -91.294375986010607, 36.989455267967934 ], [ -91.294444440151864, 36.989456481395223 ], [ -91.294443683809845, 36.989483937607012 ] ] ] } },
{ "type": "Feature", "properties": { "fid": 3, "lot_no": "61", "name": null, "status": null }, "geometry": { "type": "Polygon", "coordinates": [ [ [ -91.294374101636166, 36.989515664875952 ], [ -91.294442555831495, 36.989516878305317 ], [ -91.294441043142882, 36.989571790728164 ], [ -91.294372588898383, 36.989570577297059 ], [ -91.294374101636166, 36.989515664875952 ] ] ] } },
{ "type": "Feature", "properties": { "fid": 4, "lot_no": "62", "name": null, "status": null }, "geometry": { "type": "Polygon", "coordinates": [ [ [ -91.294372635789998, 36.989576069750882 ], [ -91.294441090039427, 36.989577283182044 ], [ -91.294439577347347, 36.989632195604266 ], [ -91.294371123048734, 36.98963098217137 ], [ -91.294372635789998, 36.989576069750882 ] ] ] } },
{ "type": "Feature", "properties": { "fid": 5, "lot_no": "55", "name": null, "status": null }, "geometry": { "type": "Polygon", "coordinates": [ [ [ -91.294302605940743, 36.989393589707532 ], [ -91.294371060024389, 36.989394803176147 ], [ -91.294369547289222, 36.98944971559829 ], [ -91.29430109315642, 36.989448502127935 ], [ -91.294302605940743, 36.989393589707532 ] ] ] } },
{ "type": "Feature", "properties": { "fid": 6, "lot_no": "56", "name": null, "status": null }, "geometry": { "type": "Polygon", "coordinates": [ [ [ -91.294300685336509, 36.98945398495961 ], [ -91.294369139474213, 36.989455198430299 ], [ -91.294367626735252, 36.989510110851825 ], [ -91.294299172548392, 36.989508897379388 ], [ -91.294300685336509, 36.98945398495961 ] ] ] } },
{ "type": "Feature", "properties": { "fid": 7, "lot_no": "57", "name": null, "status": null }, "geometry": { "type": "Polygon", "coordinates": [ [ [ -91.294298800902595, 36.989514381865391 ], [ -91.294367255094357, 36.98951559533814 ], [ -91.294365742351658, 36.989570507759034 ], [ -91.294297288110698, 36.989569294284557 ], [ -91.294298800902595, 36.989514381865391 ] ] ] } },
{ "type": "Feature", "properties": { "fid": 8, "lot_no": "58", "name": null, "status": null }, "geometry": { "type": "Polygon", "coordinates": [ [ [ -91.294297334996912, 36.989574786738316 ], [ -91.294365789242789, 36.989576000212864 ], [ -91.294364276496609, 36.98963091263316 ], [ -91.294295822201562, 36.989629699156865 ], [ -91.294297334996912, 36.989574786738316 ] ] ] } },
{ "type": "Feature", "properties": { "fid": 9, "lot_no": "51", "name": null, "status": null }, "geometry": { "type": "Polygon", "coordinates": [ [ [ -91.294227305330011, 36.98939230665377 ], [ -91.294295759410062, 36.98939352016577 ], [ -91.294294246620836, 36.989448432585995 ], [ -91.294225792491588, 36.989447219072233 ], [ -91.294227305330011, 36.98939230665377 ] ] ] } },
{ "type": "Feature", "properties": { "fid": 10, "lot_no": "52", "name": null, "status": null }, "geometry": { "type": "Polygon", "coordinates": [ [ [ -91.294225384666277, 36.989452701903566 ], [ -91.294293838800414, 36.989453915417641 ], [ -91.29429232600738, 36.989508827837234 ], [ -91.294223871824073, 36.989507614321411 ], [ -91.294225384666277, 36.989452701903566 ] ] ] } },
{ "type": "Feature", "properties": { "fid": 11, "lot_no": "53", "name": null, "status": null }, "geometry": { "type": "Polygon", "coordinates": [ [ [ -91.294223500172876, 36.989513098807087 ], [ -91.294291954361086, 36.989514312323209 ], [ -91.294290441564286, 36.989569224742205 ], [ -91.294221987326893, 36.989568011224307 ], [ -91.294223500172876, 36.989513098807087 ] ] ] } },
{ "type": "Feature", "properties": { "fid": 12, "lot_no": "54", "name": null, "status": null }, "geometry": { "type": "Polygon", "coordinates": [ [ [ -91.294222034207692, 36.989573503678002 ], [ -91.294290488449988, 36.98957471719595 ], [ -91.294288975649721, 36.989629629614321 ], [ -91.294220521358255, 36.989628416094625 ], [ -91.294222034207692, 36.989573503678002 ] ] ] } },
{ "type": "Feature", "properties": { "fid": 13, "lot_no": "50", "name": null, "status": null }, "geometry": { "type": "Polygon", "coordinates": [ [ [ -91.294229118672575, 36.989331906944358 ], [ -91.294297572698554, 36.989333120454347 ], [ -91.294296059913023, 36.989388032875183 ], [ -91.294227605837861, 36.989386819363446 ], [ -91.294229118672575, 36.989331906944358 ] ] ] } },
{ "type": "Feature", "properties": { "fid": 14, "lot_no": "46", "name": null, "status": null }, "geometry": { "type": "Polygon", "coordinates": [ [ [ -91.294152007430725, 36.989390923723143 ], [ -91.294220461507138, 36.989392137278514 ], [ -91.294218948663811, 36.989447049696821 ], [ -91.294150494538215, 36.989445836139673 ], [ -91.294152007430725, 36.989390923723143 ] ] ] } },
{ "type": "Feature", "properties": { "fid": 15, "lot_no": "47A", "name": null, "status": null }, "geometry": { "type": "Polygon", "coordinates": [ [ [ -91.294182800900643, 36.989506838171103 ], [ -91.294184313772348, 36.989451925754302 ], [ -91.294218540838003, 36.989452532528105 ], [ -91.294217027990882, 36.989507444945772 ], [ -91.294182800900643, 36.989506838171103 ] ] ] } },
{ "type": "Feature", "properties": { "fid": 16, "lot_no": "48A", "name": null, "status": null }, "geometry": { "type": "Polygon", "coordinates": [ [ [ -91.294215899914164, 36.989540385640026 ], [ -91.294147445705008, 36.989539172079624 ], [ -91.294148202154631, 36.989511715871906 ], [ -91.294216656339188, 36.989512929431427 ], [ -91.294215899914164, 36.989540385640026 ] ] ] } },
{ "type": "Feature", "properties": { "fid": 17, "lot_no": "49A", "name": null, "status": null }, "geometry": { "type": "Polygon", "coordinates": [ [ [ -91.294179450369938, 36.989627639942007 ], [ -91.294180963248849, 36.989572727526436 ], [ -91.29421519036859, 36.989573334302172 ], [ -91.294213677514236, 36.989628246718624 ], [ -91.294179450369938, 36.989627639942007 ] ] ] } },
{ "type": "Feature", "properties": { "fid": 18, "lot_no": "45", "name": null, "status": null }, "geometry": { "type": "Polygon", "coordinates": [ [ [ -91.294153820832761, 36.989330524015926 ], [ -91.294222274855102, 36.989331737569316 ], [ -91.29422076201547, 36.989386649988212 ], [ -91.294152307943961, 36.989385436433089 ], [ -91.294153820832761, 36.989330524015926 ] ] ] } },
{ "type": "Feature", "properties": { "fid": 19, "lot_no": "41", "name": null, "status": null }, "geometry": { "type": "Polygon", "coordinates": [ [ [ -91.294076706827795, 36.989389640573904 ], [ -91.294145160900669, 36.98939085417269 ], [ -91.294143648003242, 36.98944576658905 ], [ -91.294075193881213, 36.98944455298853 ], [ -91.294076706827795, 36.989389640573904 ] ] ] } },
{ "type": "Feature", "properties": { "fid": 20, "lot_no": "42", "name": null, "status": null }, "geometry": { "type": "Polygon", "coordinates": [ [ [ -91.294074786045115, 36.989450035819139 ], [ -91.294143240172048, 36.989451249419986 ], [ -91.294141727270826, 36.989506161835749 ], [ -91.294073273094739, 36.989504948233126 ], [ -91.294074786045115, 36.989450035819139 ] ] ] } },
{ "type": "Feature", "properties": { "fid": 21, "lot_no": "43", "name": null, "status": null }, "geometry": { "type": "Polygon", "coordinates": [ [ [ -91.294072901432742, 36.989510432718141 ], [ -91.29414135561376, 36.989511646321048 ], [ -91.294139842708773, 36.989566558736172 ], [ -91.294071388478599, 36.98956534513151 ], [ -91.294072901432742, 36.989510432718141 ] ] ] } },
{ "type": "Feature", "properties": { "fid": 22, "lot_no": "44", "name": null, "status": null }, "geometry": { "type": "Polygon", "coordinates": [ [ [ -91.294071435348542, 36.989570837585077 ], [ -91.294139889583633, 36.989572051189789 ], [ -91.294138376675193, 36.989626963604323 ], [ -91.294069922390918, 36.989625749997842 ], [ -91.294071435348542, 36.989570837585077 ] ] ] } },
{ "type": "Feature", "properties": { "fid": 23, "lot_no": "40", "name": null, "status": null }, "geometry": { "type": "Polygon", "coordinates": [ [ [ -91.294078520289332, 36.989329240868919 ], [ -91.294146974308106, 36.989330454465687 ], [ -91.294145461414402, 36.989385366882672 ], [ -91.294077007346459, 36.989384153284142 ], [ -91.294078520289332, 36.989329240868919 ] ] ] } },
{ "type": "Feature", "properties": { "fid": 24, "lot_no": "36", "name": null, "status": null }, "geometry": { "type": "Polygon", "coordinates": [ [ [ -91.294001406228759, 36.989388357376946 ], [ -91.294069860298052, 36.98938957101911 ], [ -91.294068347346524, 36.989444483433559 ], [ -91.293999893228076, 36.989443269789632 ], [ -91.294001406228759, 36.989388357376946 ] ] ] } },
{ "type": "Feature", "properties": { "fid": 25, "lot_no": "37", "name": null, "status": null }, "geometry": { "type": "Polygon", "coordinates": [ [ [ -91.293999485386578, 36.989448752619886 ], [ -91.294067939509958, 36.989449966264132 ], [ -91.29406642655465, 36.989504878677955 ], [ -91.293997972382101, 36.989503665031961 ], [ -91.293999485386578, 36.989448752619886 ] ] ] } },
{ "type": "Feature", "properties": { "fid": 26, "lot_no": "38", "name": null, "status": null }, "geometry": { "type": "Polygon", "coordinates": [ [ [ -91.293997600714732, 36.989509149516635 ], [ -91.294066054892184, 36.989510363162935 ], [ -91.294064541933096, 36.989565275576147 ], [ -91.293996087706489, 36.989564061928093 ], [ -91.293997600714732, 36.989509149516635 ] ] ] } },
{ "type": "Feature", "properties": { "fid": 27, "lot_no": "39", "name": null, "status": null }, "geometry": { "type": "Polygon", "coordinates": [ [ [ -91.293996134571017, 36.989569554381582 ], [ -91.294064588802556, 36.989570768029694 ], [ -91.294063075840029, 36.989625680442288 ], [ -91.293994621559307, 36.989624466792421 ], [ -91.293996134571017, 36.989569554381582 ] ] ] } },
{ "type": "Feature", "properties": { "fid": 28, "lot_no": "35", "name": null, "status": null }, "geometry": { "type": "Polygon", "coordinates": [ [ [ -91.294003219749769, 36.989327957674163 ], [ -91.294071673764989, 36.989329171314338 ], [ -91.294070160817185, 36.989384083729398 ], [ -91.294001706752809, 36.989382870087468 ], [ -91.294003219749769, 36.989327957674163 ] ] ] } },
{ "type": "Feature", "properties": { "fid": 29, "lot_no": "31", "name": null, "status": null }, "geometry": { "type": "Polygon", "coordinates": [ [ [ -91.293926105633574, 36.989387074132253 ], [ -91.2939945596993, 36.989388287817818 ], [ -91.2939930466937, 36.989443200230333 ], [ -91.293924592578804, 36.989441986543007 ], [ -91.293926105633574, 36.989387074132253 ] ] ] } },
{ "type": "Feature", "properties": { "fid": 30, "lot_no": "32", "name": null, "status": null }, "geometry": { "type": "Polygon", "coordinates": [ [ [ -91.293924184731921, 36.989447469372926 ], [ -91.293992638851719, 36.989448683060552 ], [ -91.293991125842339, 36.989503595472449 ], [ -91.293922671673343, 36.989502381783055 ], [ -91.293924184731921, 36.989447469372926 ] ] ] } },
{ "type": "Feature", "properties": { "fid": 31, "lot_no": "33", "name": null, "status": null }, "geometry": { "type": "Polygon", "coordinates": [ [ [ -91.293922300000574, 36.989507866267388 ], [ -91.293990754174459, 36.989509079957081 ], [ -91.293989241161285, 36.989563992368382 ], [ -91.293920786938244, 36.98956277867692 ], [ -91.293922300000574, 36.989507866267388 ] ] ] } },
{ "type": "Feature", "properties": { "fid": 32, "lot_no": "34", "name": null, "status": null }, "geometry": { "type": "Polygon", "coordinates": [ [ [ -91.293920833797358, 36.989568271130345 ], [ -91.29398928802533, 36.98956948482185 ], [ -91.293987775008716, 36.989624397232532 ], [ -91.293919320731561, 36.989623183539273 ], [ -91.293920833797358, 36.989568271130345 ] ] ] } },
{ "type": "Feature", "properties": { "fid": 33, "lot_no": "30", "name": null, "status": null }, "geometry": { "type": "Polygon", "coordinates": [ [ [ -91.293927919214084, 36.989326674431695 ], [ -91.293996373225738, 36.989327888115248 ], [ -91.293994860223847, 36.989382800528382 ], [ -91.293926406163024, 36.989381586843081 ], [ -91.293927919214084, 36.989326674431695 ] ] ] } },
{ "type": "Feature", "properties": { "fid": 34, "lot_no": "26", "name": null, "status": null }, "geometry": { "type": "Polygon", "coordinates": [ [ [ -91.293850805042254, 36.989385790839819 ], [ -91.293919259104428, 36.989387004568776 ], [ -91.293917746044741, 36.989441916979374 ], [ -91.293849291933384, 36.989440703248661 ], [ -91.293850805042254, 36.989385790839819 ] ] ] } },
{ "type": "Feature", "properties": { "fid": 35, "lot_no": "27", "name": null, "status": null }, "geometry": { "type": "Polygon", "coordinates": [ [ [ -91.293848884081115, 36.989446186078212 ], [ -91.29391733819736, 36.989447399809237 ], [ -91.29391582513388, 36.989502312219209 ], [ -91.29384737096845, 36.989501098486421 ], [ -91.293848884081115, 36.989446186078212 ] ] ] } },
{ "type": "Feature", "properties": { "fid": 36, "lot_no": "28", "name": null, "status": null }, "geometry": { "type": "Polygon", "coordinates": [ [ [ -91.293846999290295, 36.989506582970435 ], [ -91.293915453460599, 36.989507796703514 ], [ -91.293913940393352, 36.98956270911286 ], [ -91.293845486173865, 36.989561495378034 ], [ -91.293846999290295, 36.989506582970435 ] ] ] } },
{ "type": "Feature", "properties": { "fid": 37, "lot_no": "29", "name": null, "status": null }, "geometry": { "type": "Polygon", "coordinates": [ [ [ -91.293845533027564, 36.989566987831374 ], [ -91.293913987251983, 36.989568201566279 ], [ -91.293912474181255, 36.989623113975028 ], [ -91.293844019907667, 36.989621900238376 ], [ -91.293845533027564, 36.989566987831374 ] ] ] } },
{ "type": "Feature", "properties": { "fid": 38, "lot_no": "25", "name": null, "status": null }, "geometry": { "type": "Polygon", "coordinates": [ [ [ -91.293852618682251, 36.989325391141485 ], [ -91.293921072690353, 36.989326604868431 ], [ -91.293919559634361, 36.989381517279632 ], [ -91.293851105577104, 36.989380303550931 ], [ -91.293852618682251, 36.989325391141485 ] ] ] } },
{ "type": "Feature", "properties": { "fid": 39, "lot_no": "21", "name": null, "status": null }, "geometry": { "type": "Polygon", "coordinates": [ [ [ -91.2937755044548, 36.989384507499672 ], [ -91.29384395851342, 36.989385721272008 ], [ -91.293842445399633, 36.98944063368068 ], [ -91.293773991291857, 36.989439419906574 ], [ -91.2937755044548, 36.989384507499672 ] ] ] } },
{ "type": "Feature", "properties": { "fid": 40, "lot_no": "22", "name": null, "status": null }, "geometry": { "type": "Polygon", "coordinates": [ [ [ -91.293773583434174, 36.989444902735769 ], [ -91.293842037546867, 36.989446116510194 ], [ -91.293840524429285, 36.989501028918241 ], [ -91.293772070267437, 36.989499815142054 ], [ -91.293773583434174, 36.989444902735769 ] ] ] } },
{ "type": "Feature", "properties": { "fid": 41, "lot_no": "23A", "name": null, "status": null }, "geometry": { "type": "Polygon", "coordinates": [ [ [ -91.293804412520913, 36.989560818925462 ], [ -91.293805925666831, 36.989505906518893 ], [ -91.293840152750633, 36.989506513402212 ], [ -91.293838639629286, 36.989561425809619 ], [ -91.293804412520913, 36.989560818925462 ] ] ] } },
{ "type": "Feature", "properties": { "fid": 42, "lot_no": "24", "name": null, "status": null }, "geometry": { "type": "Polygon", "coordinates": [ [ [ -91.293770232261636, 36.98956570448469 ], [ -91.293838686482474, 36.989566918262973 ], [ -91.293837173357673, 36.98962183066979 ], [ -91.293768719087652, 36.989620616889752 ], [ -91.293770232261636, 36.98956570448469 ] ] ] } },
{ "type": "Feature", "properties": { "fid": 43, "lot_no": "20", "name": null, "status": null }, "geometry": { "type": "Polygon", "coordinates": [ [ [ -91.293777318154284, 36.989324107803533 ], [ -91.293845772158832, 36.98932532157388 ], [ -91.293844259048754, 36.989380233983148 ], [ -91.29377580499505, 36.989379020211061 ], [ -91.293777318154284, 36.989324107803533 ] ] ] } },
{ "type": "Feature", "properties": { "fid": 44, "lot_no": "16", "name": null, "status": null }, "geometry": { "type": "Polygon", "coordinates": [ [ [ -91.293700203871211, 36.989383224111776 ], [ -91.293768657926265, 36.989384437927519 ], [ -91.293767144758377, 36.989439350334237 ], [ -91.293698690654168, 36.989438136516753 ], [ -91.293700203871211, 36.989383224111776 ] ] ] } },
{ "type": "Feature", "properties": { "fid": 45, "lot_no": "17", "name": null, "status": null }, "geometry": { "type": "Polygon", "coordinates": [ [ [ -91.293698282791112, 36.989443619345593 ], [ -91.293766736900238, 36.989444833163411 ], [ -91.293765223728556, 36.989499745569525 ], [ -91.293696769570275, 36.989498531749945 ], [ -91.293698282791112, 36.989443619345593 ] ] ] } },
{ "type": "Feature", "properties": { "fid": 46, "lot_no": "18", "name": null, "status": null }, "geometry": { "type": "Polygon", "coordinates": [ [ [ -91.293696397881305, 36.989504016233305 ], [ -91.293764852044504, 36.989505230053169 ], [ -91.293763338869084, 36.989560142458657 ], [ -91.293694884656702, 36.989558928637045 ], [ -91.293696397881305, 36.989504016233305 ] ] ] } },
{ "type": "Feature", "properties": { "fid": 47, "lot_no": "19", "name": null, "status": null }, "geometry": { "type": "Polygon", "coordinates": [ [ [ -91.293694931499573, 36.989564421090257 ], [ -91.293763385716858, 36.989565634911948 ], [ -91.293761872537956, 36.989620547316825 ], [ -91.293693418271488, 36.989619333493394 ], [ -91.293694931499573, 36.989564421090257 ] ] ] } },
{ "type": "Feature", "properties": { "fid": 48, "lot_no": "15", "name": null, "status": null }, "geometry": { "type": "Polygon", "coordinates": [ [ [ -91.29370201763021, 36.989322824417854 ], [ -91.293770471631163, 36.989324038231594 ], [ -91.293768958467012, 36.989378950638937 ], [ -91.293700504416861, 36.989377736823457 ], [ -91.29370201763021, 36.989322824417854 ] ] ] } },
{ "type": "Feature", "properties": { "fid": 49, "lot_no": "11", "name": null, "status": null }, "geometry": { "type": "Polygon", "coordinates": [ [ [ -91.293624903291501, 36.989381940676154 ], [ -91.293693357342974, 36.989383154535282 ], [ -91.293691844121014, 36.989438066940089 ], [ -91.293623390020343, 36.989436853079205 ], [ -91.293624903291501, 36.989381940676154 ] ] ] } },
{ "type": "Feature", "properties": { "fid": 50, "lot_no": "12", "name": null, "status": null }, "geometry": { "type": "Polygon", "coordinates": [ [ [ -91.293622982151916, 36.989442335907675 ], [ -91.293691436257475, 36.989443549768893 ], [ -91.293689923031707, 36.989498462173074 ], [ -91.293621468876992, 36.989497248310123 ], [ -91.293622982151916, 36.989442335907675 ] ] ] } },
{ "type": "Feature", "properties": { "fid": 51, "lot_no": "13", "name": null, "status": null }, "geometry": { "type": "Polygon", "coordinates": [ [ [ -91.293621097182623, 36.989502732793134 ], [ -91.293689551342268, 36.989503946656384 ], [ -91.293688038112734, 36.989558859059954 ], [ -91.293619583903933, 36.989557645194964 ], [ -91.293621097182623, 36.989502732793134 ] ] ] } },
{ "type": "Feature", "properties": { "fid": 52, "lot_no": "14", "name": null, "status": null }, "geometry": { "type": "Polygon", "coordinates": [ [ [ -91.293619630741375, 36.989563137648098 ], [ -91.293688084955107, 36.989564351513174 ], [ -91.29368657172212, 36.989619263916147 ], [ -91.293618117459218, 36.989618050049309 ], [ -91.293619630741375, 36.989563137648098 ] ] ] } },
{ "type": "Feature", "properties": { "fid": 53, "lot_no": "10", "name": null, "status": null }, "geometry": { "type": "Polygon", "coordinates": [ [ [ -91.293626717109973, 36.989321540984456 ], [ -91.293695171107387, 36.989322754841574 ], [ -91.293693657889122, 36.989377667246998 ], [ -91.293625203842552, 36.989376453388111 ], [ -91.293626717109973, 36.989321540984456 ] ] ] } },
{ "type": "Feature", "properties": { "fid": 54, "lot_no": "6", "name": null, "status": null }, "geometry": { "type": "Polygon", "coordinates": [ [ [ -91.293549602715643, 36.989380657192811 ], [ -91.293618056763577, 36.989381871095318 ], [ -91.293616543487516, 36.989436783498206 ], [ -91.293548089390413, 36.989435569593923 ], [ -91.293549602715643, 36.989380657192811 ] ] ] } },
{ "type": "Feature", "properties": { "fid": 55, "lot_no": "7", "name": null, "status": null }, "geometry": { "type": "Polygon", "coordinates": [ [ [ -91.293547681516571, 36.989441052422052 ], [ -91.293616135618578, 36.989442266326648 ], [ -91.293614622338723, 36.989497178728911 ], [ -91.293546168187547, 36.989495964822552 ], [ -91.293547681516571, 36.989441052422052 ] ] ] } },
{ "type": "Feature", "properties": { "fid": 56, "lot_no": "8", "name": null, "status": null }, "geometry": { "type": "Polygon", "coordinates": [ [ [ -91.293545796487805, 36.98950144930523 ], [ -91.293614250643884, 36.989502663211887 ], [ -91.293612737360263, 36.989557575613524 ], [ -91.293544283155015, 36.98955636170512 ], [ -91.293545796487805, 36.98950144930523 ] ] ] } },
{ "type": "Feature", "properties": { "fid": 57, "lot_no": "9", "name": null, "status": null }, "geometry": { "type": "Polygon", "coordinates": [ [ [ -91.293544329987043, 36.989561854158211 ], [ -91.293612784197222, 36.98956306806668 ], [ -91.293611270910134, 36.989617980467706 ], [ -91.293542816650785, 36.989616766557489 ], [ -91.293544329987043, 36.989561854158211 ] ] ] } },
{ "type": "Feature", "properties": { "fid": 58, "lot_no": "5", "name": null, "status": null }, "geometry": { "type": "Polygon", "coordinates": [ [ [ -91.293551416593615, 36.989320257503316 ], [ -91.293619870587449, 36.989321471403834 ], [ -91.293618357315111, 36.989376383807311 ], [ -91.293549903272108, 36.98937516990506 ], [ -91.293551416593615, 36.989320257503316 ] ] ] } },
{ "type": "Feature", "properties": { "fid": 59, "lot_no": "1", "name": "Jerry Weaver", "status": null }, "geometry": { "type": "Polygon", "coordinates": [ [ [ -91.293474304923606, 36.989379271984767 ], [ -91.293542758967874, 36.989380485930674 ], [ -91.293541245637741, 36.989435398331629 ], [ -91.293472791544289, 36.98943418438396 ], [ -91.293474304923606, 36.989379271984767 ] ] ] } },
{ "type": "Feature", "properties": { "fid": 60, "lot_no": "2", "name": null, "status": null }, "geometry": { "type": "Polygon", "coordinates": [ [ [ -91.293472383665062, 36.989439667211741 ], [ -91.293540837763416, 36.989440881159716 ], [ -91.293539324429474, 36.989495793560053 ], [ -91.293470870281965, 36.989494579610309 ], [ -91.293472383665062, 36.989439667211741 ] ] ] } },
{ "type": "Feature", "properties": { "fid": 61, "lot_no": "3", "name": null, "status": null }, "geometry": { "type": "Polygon", "coordinates": [ [ [ -91.293470498576809, 36.989500064092667 ], [ -91.293538952729236, 36.989501278042695 ], [ -91.293537439391528, 36.989556190442421 ], [ -91.293468985189932, 36.989554976490616 ], [ -91.293470498576809, 36.989500064092667 ] ] ] } },
{ "type": "Feature", "properties": { "fid": 62, "lot_no": "4", "name": null, "status": null }, "geometry": { "type": "Polygon", "coordinates": [ [ [ -91.29346903201656, 36.989560468943637 ], [ -91.293537486223073, 36.989561682895491 ], [ -91.293535972881912, 36.989616595294592 ], [ -91.293467518626215, 36.989615381340997 ], [ -91.29346903201656, 36.989560468943637 ] ] ] } },
{ "type": "Feature", "properties": { "fid": 63, "lot_no": "23B", "name": null, "status": null }, "geometry": { "type": "Polygon", "coordinates": [ [ [ -91.293805925666831, 36.989505906518893 ], [ -91.293804412520913, 36.989560818925462 ], [ -91.293770185413351, 36.989560212031392 ], [ -91.293771698583868, 36.989505299625726 ], [ -91.293805925666831, 36.989505906518893 ] ] ] } },
{ "type": "Feature", "properties": { "fid": 64, "lot_no": "47B", "name": null, "status": null }, "geometry": { "type": "Polygon", "coordinates": [ [ [ -91.294184313772348, 36.989451925754302 ], [ -91.294182800900643, 36.989506838171103 ], [ -91.294148573811214, 36.989506231386571 ], [ -91.294150086707504, 36.989451318970637 ], [ -91.294184313772348, 36.989451925754302 ] ] ] } },
{ "type": "Feature", "properties": { "fid": 65, "lot_no": "48C", "name": null, "status": null }, "geometry": { "type": "Polygon", "coordinates": [ [ [ -91.294181672809174, 36.98953977886476 ], [ -91.294180916371033, 36.989567235072784 ], [ -91.294146689254575, 36.989566628287214 ], [ -91.294147445705008, 36.989539172079624 ], [ -91.294181672809174, 36.98953977886476 ] ] ] } },
{ "type": "Feature", "properties": { "fid": 66, "lot_no": "48B", "name": null, "status": null }, "geometry": { "type": "Polygon", "coordinates": [ [ [ -91.294180916371033, 36.989567235072784 ], [ -91.294181672809174, 36.98953977886476 ], [ -91.294215899914164, 36.989540385640026 ], [ -91.294215143488302, 36.989567841848491 ], [ -91.294180916371033, 36.989567235072784 ] ] ] } },
{ "type": "Feature", "properties": { "fid": 67, "lot_no": "49B", "name": null, "status": null }, "geometry": { "type": "Polygon", "coordinates": [ [ [ -91.294180963248849, 36.989572727526436 ], [ -91.294179450369938, 36.989627639942007 ], [ -91.294145223226408, 36.989627033155543 ], [ -91.294146736129946, 36.989572120740839 ], [ -91.294180963248849, 36.989572727526436 ] ] ] } },
{ "type": "Feature", "properties": { "fid": 68, "lot_no": "60B", "name": null, "status": null }, "geometry": { "type": "Polygon", "coordinates": [ [ [ -91.29437522964399, 36.989482724178856 ], [ -91.294443683809845, 36.989483937607012 ], [ -91.294442927467017, 36.989511393818688 ], [ -91.294374473276591, 36.98951018038963 ], [ -91.29437522964399, 36.989482724178856 ] ] ] } }
]
}
